start=new Date('2022-11-26T00:00:00.000Z').valueOf();
sats=[{"INCLINATION":"53.2164","NORAD_CAT_ID":"52540","MEAN_ANOMALY":"311.8660","MEAN_MOTION":"15.08837499","DECAY_DATE":null,"GP_ID":"218820947","ECCENTRICITY":"0.00023920","PERIAPSIS":"538.098","SEMIMAJOR_AXIS":"6917.888","APOAPSIS":"541.408","TLE_LINE2":"2 52540  53.2164 115.5868 0002392  48.2536 311.8660 15.08837499 30302","TLE_LINE1":"1 52540U 22051H   22329.81166184  .00000554  00000-0  52908-4 0  9991","ELEMENT_SET_NO":"999","COUNTRY_CODE":"US","BSTAR":"0.00005290800000","RA_OF_ASC_NODE":"115.5868","FILE":"3670141","MEAN_ELEMENT_THEORY":"SGP4","ARG_OF_PERICENTER":"48.2536","CLASSIFICATION_TYPE":"U","SITE":"AFWTR","EPHEMERIS_TYPE":"0","OBJECT_ID":"2022-051H","OBJECT_TYPE":"PAYLOAD","EPOCH":"2022-11-25T19:28:47.582976","CENTER_NAME":"EARTH","RCS_SIZE":"LARGE","REV_AT_EPOCH":"3030","TIME_SYSTEM":"UTC","MEAN_MOTION_DOT":"0.00000554","LAUNCH_DATE":"2022-05-13","PERIOD":"95.438","OBJECT_NAME":"STARLINK-3940","MEAN_MOTION_DDOT":"0.0000000000000","REF_FRAME":"TEME"},{"PERIOD":"95.438","MEAN_MOTION_DOT":"0.00000239","LAUNCH_DATE":"2022-05-13","REF_FRAME":"TEME","MEAN_MOTION_DDOT":"0.0000000000000","OBJECT_NAME":"STARLINK-3845","RCS_SIZE":"LARGE","TIME_SYSTEM":"UTC","REV_AT_EPOCH":"3021","CENTER_NAME":"EARTH","SITE":"AFWTR","EPHEMERIS_TYPE":"0","OBJECT_ID":"2022-051J","ARG_OF_PERICENTER":"54.8201","CLASSIFICATION_TYPE":"U","OBJECT_TYPE":"PAYLOAD","EPOCH":"2022-11-25T17:07:41.678976","COUNTRY_CODE":"US","TLE_LINE2":"2 52541  53.2174 121.0177 0002153  54.8201 305.2992 15.08838404 30218","ELEMENT_SET_NO":"999","TLE_LINE1":"1 52541U 22051J   22329.71367684  .00000239  00000-0  33142-4 0  9998","MEAN_ELEMENT_THEORY":"SGP4","FILE":"3670141","BSTAR":"0.00003314200000","RA_OF_ASC_NODE":"121.0177","APOAPSIS":"541.240","SEMIMAJOR_AXIS":"6917.885","DECAY_DATE":null,"GP_ID":"218821197","PERIAPSIS":"538.261","ECCENTRICITY":"0.00021530","MEAN_ANOMALY":"305.2992","NORAD_CAT_ID":"52541","INCLINATION":"53.2174","MEAN_MOTION":"15.08838404"},{"APOAPSIS":"541.359","SEMIMAJOR_AXIS":"6917.686","MEAN_ELEMENT_THEORY":"SGP4","FILE":"3670141","BSTAR":"-0.00079020000000","RA_OF_ASC_NODE":"116.2006","COUNTRY_CODE":"US","TLE_LINE1":"1 52542U 22051K   22329.67548923 -.00012865  00000-0 -79020-3 0  9995","TLE_LINE2":"2 52542  53.2191 116.2006 0002614  38.8528 321.2652 15.08903605 30285","ELEMENT_SET_NO":"999","MEAN_MOTION":"15.08903605","MEAN_ANOMALY":"321.2652","NORAD_CAT_ID":"52542","INCLINATION":"53.2191","PERIAPSIS":"537.743","ECCENTRICITY":"0.00026140","GP_ID":"218821941","DECAY_DATE":null,"TIME_SYSTEM":"UTC","REV_AT_EPOCH":"3028","RCS_SIZE":"LARGE","REF_FRAME":"TEME","MEAN_MOTION_DDOT":"0.0000000000000","OBJECT_NAME":"STARLINK-3937","PERIOD":"95.434","LAUNCH_DATE":"2022-05-13","MEAN_MOTION_DOT":"-0.00012865","EPOCH":"2022-11-25T16:12:42.269472","OBJECT_TYPE":"PAYLOAD","OBJECT_ID":"2022-051K","EPHEMERIS_TYPE":"0","SITE":"AFWTR","CLASSIFICATION_TYPE":"U","ARG_OF_PERICENTER":"38.8528","CENTER_NAME":"EARTH"},{"REV_AT_EPOCH":"3028","TIME_SYSTEM":"UTC","RCS_SIZE":"LARGE","OBJECT_NAME":"STARLINK-3926","MEAN_MOTION_DDOT":"0.0000000000000","REF_FRAME":"TEME","LAUNCH_DATE":"2022-05-13","MEAN_MOTION_DOT":"0.00001849","PERIOD":"95.437","EPOCH":"2022-11-25T16:28:37.373952","OBJECT_TYPE":"PAYLOAD","CLASSIFICATION_TYPE":"U","ARG_OF_PERICENTER":"59.5149","OBJECT_ID":"2022-051L","SITE":"AFWTR","EPHEMERIS_TYPE":"0","CENTER_NAME":"EARTH","SEMIMAJOR_AXIS":"6917.875","APOAPSIS":"541.301","BSTAR":"0.00013423000000","RA_OF_ASC_NODE":"116.1497","FILE":"3670141","MEAN_ELEMENT_THEORY":"SGP4","TLE_LINE2":"2 52543  53.2166 116.1497 0002257  59.5149 300.6066 15.08841879 30287","ELEMENT_SET_NO":"999","TLE_LINE1":"1 52543U 22051L   22329.68654368  .00001849  00000-0  13423-3 0  9991","COUNTRY_CODE":"US","MEAN_MOTION":"15.08841879","INCLINATION":"53.2166","NORAD_CAT_ID":"52543","MEAN_ANOMALY":"300.6066","ECCENTRICITY":"0.00022570","PERIAPSIS":"538.178","GP_ID":"218822189","DECAY_DATE":null},{"SEMIMAJOR_AXIS":"6917.858","APOAPSIS":"541.706","BSTAR":"0.00013083000000","RA_OF_ASC_NODE":"121.0642","FILE":"3670141","MEAN_ELEMENT_THEORY":"SGP4","ELEMENT_SET_NO":"999","TLE_LINE2":"2 52544  53.2163 121.0642 0002867  48.4198 311.7040 15.08847334 30210","TLE_LINE1":"1 52544U 22051M   22329.70631296  .00001795  00000-0  13083-3 0  9992","COUNTRY_CODE":"US","MEAN_MOTION":"15.08847334","INCLINATION":"53.2163","NORAD_CAT_ID":"52544","MEAN_ANOMALY":"311.7040","ECCENTRICITY":"0.00028670","PERIAPSIS":"537.740","GP_ID":"218821447","DECAY_DATE":null,"REV_AT_EPOCH":"3021","TIME_SYSTEM":"UTC","RCS_SIZE":"LARGE","MEAN_MOTION_DDOT":"0.0000000000000","OBJECT_NAME":"STARLINK-3944","REF_FRAME":"TEME","LAUNCH_DATE":"2022-05-13","MEAN_MOTION_DOT":"0.00001795","PERIOD":"95.437","EPOCH":"2022-11-25T16:57:05.439744","OBJECT_TYPE":"PAYLOAD","CLASSIFICATION_TYPE":"U","ARG_OF_PERICENTER":"48.4198","OBJECT_ID":"2022-051M","SITE":"AFWTR","EPHEMERIS_TYPE":"0","CENTER_NAME":"EARTH"},{"REF_FRAME":"TEME","OBJECT_NAME":"STARLINK-3939","MEAN_MOTION_DDOT":"0.0000000000000","PERIOD":"95.437","LAUNCH_DATE":"2022-05-13","MEAN_MOTION_DOT":"0.00002589","TIME_SYSTEM":"UTC","REV_AT_EPOCH":"3029","RCS_SIZE":"LARGE","CENTER_NAME":"EARTH","EPOCH":"2022-11-25T17:58:41.621376","OBJECT_TYPE":"PAYLOAD","OBJECT_ID":"2022-051N","SITE":"AFWTR","EPHEMERIS_TYPE":"0","CLASSIFICATION_TYPE":"U","ARG_OF_PERICENTER":"41.7918","FILE":"3670141","MEAN_ELEMENT_THEORY":"SGP4","BSTAR":"0.00018067000000","RA_OF_ASC_NODE":"115.8757","COUNTRY_CODE":"US","ELEMENT_SET_NO":"999","TLE_LINE2":"2 52545  53.2169 115.8757 0002962  41.7918 318.3300 15.08847449 30294","TLE_LINE1":"1 52545U 22051N   22329.74909284  .00002589  00000-0  18067-3 0  9991","APOAPSIS":"541.772","SEMIMAJOR_AXIS":"6917.858","PERIAPSIS":"537.674","ECCENTRICITY":"0.00029620","GP_ID":"218821697","DECAY_DATE":null,"MEAN_MOTION":"15.08847449","MEAN_ANOMALY":"318.3300","NORAD_CAT_ID":"52545","INCLINATION":"53.2169"},{"COUNTRY_CODE":"US","TLE_LINE2":"2 52546  53.2182 115.9350 0002608  48.3658 311.7557 15.08844605 30293","TLE_LINE1":"1 52546U 22051P   22329.73533548  .00000627  00000-0  57521-4 0  9997","ELEMENT_SET_NO":"999","FILE":"3670141","MEAN_ELEMENT_THEORY":"SGP4","BSTAR":"0.00005752100000","RA_OF_ASC_NODE":"115.9350","APOAPSIS":"541.535","SEMIMAJOR_AXIS":"6917.866","DECAY_DATE":null,"GP_ID":"218822440","PERIAPSIS":"537.927","ECCENTRICITY":"0.00026080","MEAN_ANOMALY":"311.7557","INCLINATION":"53.2182","NORAD_CAT_ID":"52546","MEAN_MOTION":"15.08844605","PERIOD":"95.437","MEAN_MOTION_DOT":"0.00000627","LAUNCH_DATE":"2022-05-13","REF_FRAME":"TEME","MEAN_MOTION_DDOT":"0.0000000000000","OBJECT_NAME":"STARLINK-3948","RCS_SIZE":"LARGE","TIME_SYSTEM":"UTC","REV_AT_EPOCH":"3029","CENTER_NAME":"EARTH","EPHEMERIS_TYPE":"0","SITE":"AFWTR","OBJECT_ID":"2022-051P","ARG_OF_PERICENTER":"48.3658","CLASSIFICATION_TYPE":"U","OBJECT_TYPE":"PAYLOAD","EPOCH":"2022-11-25T17:38:52.985472"},{"NORAD_CAT_ID":"52547","INCLINATION":"53.2174","MEAN_ANOMALY":"309.7982","MEAN_MOTION":"15.08843116","DECAY_DATE":null,"GP_ID":"218822689","ECCENTRICITY":"0.00024070","PERIAPSIS":"538.071","SEMIMAJOR_AXIS":"6917.871","APOAPSIS":"541.401","TLE_LINE2":"2 52547  53.2174 121.0467 0002407  50.3222 309.7982 15.08843116 30216","ELEMENT_SET_NO":"999","TLE_LINE1":"1 52547U 22051Q   22329.70999551  .00000033  00000-0  20174-4 0  9990","COUNTRY_CODE":"US","RA_OF_ASC_NODE":"121.0467","BSTAR":"0.00002017400000","MEAN_ELEMENT_THEORY":"SGP4","FILE":"3670141","ARG_OF_PERICENTER":"50.3222","CLASSIFICATION_TYPE":"U","SITE":"AFWTR","EPHEMERIS_TYPE":"0","OBJECT_ID":"2022-051Q","OBJECT_TYPE":"PAYLOAD","EPOCH":"2022-11-25T17:02:23.612064","CENTER_NAME":"EARTH","RCS_SIZE":"LARGE","REV_AT_EPOCH":"3021","TIME_SYSTEM":"UTC","LAUNCH_DATE":"2022-05-13","MEAN_MOTION_DOT":"0.00000033","PERIOD":"95.437","OBJECT_NAME":"STARLINK-3869","MEAN_MOTION_DDOT":"0.0000000000000","REF_FRAME":"TEME"},{"RCS_SIZE":"LARGE","TIME_SYSTEM":"UTC","REV_AT_EPOCH":"3029","PERIOD":"95.438","LAUNCH_DATE":"2022-05-13","MEAN_MOTION_DOT":"0.00000711","REF_FRAME":"TEME","OBJECT_NAME":"STARLINK-3931","MEAN_MOTION_DDOT":"0.0000000000000","EPHEMERIS_TYPE":"0","SITE":"AFWTR","OBJECT_ID":"2022-051R","ARG_OF_PERICENTER":"54.8587","CLASSIFICATION_TYPE":"U","OBJECT_TYPE":"PAYLOAD","EPOCH":"2022-11-25T17:16:18.734592","CENTER_NAME":"EARTH","APOAPSIS":"541.303","SEMIMAJOR_AXIS":"6917.893","COUNTRY_CODE":"US","TLE_LINE2":"2 52548  53.2194 116.0007 0002234  54.8587 305.2614 15.08835867 30299","ELEMENT_SET_NO":"999","TLE_LINE1":"1 52548U 22051R   22329.71966128  .00000711  00000-0  62768-4 0  9994","FILE":"3670141","MEAN_ELEMENT_THEORY":"SGP4","RA_OF_ASC_NODE":"116.0007","BSTAR":"0.00006276800000","MEAN_ANOMALY":"305.2614","NORAD_CAT_ID":"52548","INCLINATION":"53.2194","MEAN_MOTION":"15.08835867","DECAY_DATE":null,"GP_ID":"218820948","PERIAPSIS":"538.213","ECCENTRICITY":"0.00022340"},{"CLASSIFICATION_TYPE":"U","ARG_OF_PERICENTER":"56.9112","OBJECT_ID":"2022-051S","EPHEMERIS_TYPE":"0","SITE":"AFWTR","EPOCH":"2022-11-25T17:42:49.169376","OBJECT_TYPE":"PAYLOAD","CENTER_NAME":"EARTH","RCS_SIZE":"LARGE","REV_AT_EPOCH":"3029","TIME_SYSTEM":"UTC","MEAN_MOTION_DOT":"0.00002448","LAUNCH_DATE":"2022-05-13","PERIOD":"95.438","MEAN_MOTION_DDOT":"0.0000000000000","OBJECT_NAME":"STARLINK-3935","REF_FRAME":"TEME","INCLINATION":"53.2182","NORAD_CAT_ID":"52549","MEAN_ANOMALY":"303.2039","MEAN_MOTION":"15.08839986","GP_ID":"218821198","DECAY_DATE":null,"ECCENTRICITY":"0.00016540","PERIAPSIS":"538.601","SEMIMAJOR_AXIS":"6917.880","APOAPSIS":"540.890","TLE_LINE2":"2 52549  53.2182 115.9117 0001654  56.9112 303.2039 15.08839986 30294","TLE_LINE1":"1 52549U 22051S   22329.73806909  .00002448  00000-0  17182-3 0  9995","ELEMENT_SET_NO":"999","COUNTRY_CODE":"US","BSTAR":"0.00017182000000","RA_OF_ASC_NODE":"115.9117","FILE":"3670141","MEAN_ELEMENT_THEORY":"SGP4"}];
